[{"OBJECT_NAME":"GAOFEN-9 05","OBJECT_ID":"2020-058A","EPOCH":"2026-03-10T00:01:50.876256","MEAN_MOTION":15.30293976,"ECCENTRICITY":0.0010522,"INCLINATION":97.2228,"RA_OF_ASC_NODE":111.963,"ARG_OF_PERICENTER":91.0204,"MEAN_ANOMALY":269.2242,"EPHEMERIS_TYPE":0,"CLASSIFICATION_TYPE":"U","NORAD_CAT_ID":46232,"ELEMENT_SET_NO":999,"REV_AT_EPOCH":30843,"BSTAR":0.00025120304,"MEAN_MOTION_DOT":7.299e-5,"MEAN_MOTION_DDOT":0},{"OBJECT_NAME":"STARLINK-33811","OBJECT_ID":"2025-071M","EPOCH":"2026-03-09T11:36:53.715456","MEAN_MOTION":15.30172945,"ECCENTRICITY":0.00012429,"INCLINATION":53.1576,"RA_OF_ASC_NODE":141.2165,"ARG_OF_PERICENTER":78.1832,"MEAN_ANOMALY":281.9308,"EPHEMERIS_TYPE":0,"CLASSIFICATION_TYPE":"U","NORAD_CAT_ID":63504,"ELEMENT_SET_NO":999,"REV_AT_EPOCH":5267,"BSTAR":0.00055027257,"MEAN_MOTION_DOT":0.0001596,"MEAN_MOTION_DDOT":0}]
